{"type": "FeatureCollection", "features": [{"type": "Feature", "properties": {"norad_id": 24946, "name": "IRIDIUM 33", "group": "iridium-33-debris", "lat": 44.9881077521438, "lon": -118.96776479800798, "alt_km": 766.5944070080131, "timestamp": "2025-12-21T05:44:51.972209+00:00", "meta": {"OBJECT_NAME": "IRIDIUM 33", "OBJECT_ID": "1997-051C", "EPOCH": "2025-12-20T17:24:25.283232", "MEAN_MOTION": 14.35042457, "ECCENTRICITY": 0.0007988, "INCLINATION": 86.3864, "RA_OF_ASC_NODE": 64.8697, "ARG_OF_PERICENTER": 173.6442, "MEAN_ANOMALY": 186.4857, "EPHEMERIS_TYPE": 0, "CLASSIFICATION_TYPE": "U", "NORAD_CAT_ID": 24946, "ELEMENT_SET_NO": 999, "REV_AT_EPOCH": 47949, "BSTAR": 8.1849763e-05, "MEAN_MOTION_DOT": 2.53e-06, "MEAN_MOTION_DDOT": 0}, "tle": {"line1": "1 24946U 97051C   25354.72529263  .00000253  00000+0  81850-4 0  9997", "line2": "2 24946  86.3864  64.8697 0007988 173.6442 186.4857 14.35042457479498"}}, "geometry": {"type": "Point", "coordinates": [-118.96776479800798, 44.9881077521438]}}, {"type": "Feature", "properties": {"norad_id": 33773, "name": "IRIDIUM 33 DEB", "group": "iridium-33-debris", "lat": -16.97685816541307, "lon": 55.88635434563597, "alt_km": 759.6930379893593, "timestamp": "2025-12-21T05:44:51.972236+00:00", "meta": {"OBJECT_NAME": "IRIDIUM 33 DEB", "OBJECT_ID": "1997-051L", "EPOCH": "2025-12-20T21:30:24.455232", "MEAN_MOTION": 14.43272653, "ECCENTRICITY": 0.00131203, "INCLINATION": 86.4001, "RA_OF_ASC_NODE": 57.1331, "ARG_OF_PERICENTER": 122.7867, "MEAN_ANOMALY": 237.46, "EPHEMERIS_TYPE": 0, "CLASSIFICATION_TYPE": "U", "NORAD_CAT_ID": 33773, "ELEMENT_SET_NO": 999, "REV_AT_EPOCH": 88465, "BSTAR": 0.00020658456, "MEAN_MOTION_DOT": 7.16e-06, "MEAN_MOTION_DDOT": 0}, "tle": {"line1": "1 33773U 97051L   25354.89611638  .00000716  00000+0  20658-3 0  9993", "line2": "2 33773  86.4001  57.1331 0013120 122.7867 237.4600 14.43272653884654"}}, "geometry": {"type": "Point", "coordinates": [55.88635434563597, -16.97685816541307]}}, {"type": "Feature", "properties": {"norad_id": 33775, "name": "IRIDIUM 33 DEB", "group": "iridium-33-debris", "lat": 11.783011449909472, "lon": 46.68491857104769, "alt_km": 759.8917235754816, "timestamp": "2025-12-21T05:44:51.972252+00:00", "meta": {"OBJECT_NAME": "IRIDIUM 33 DEB", "OBJECT_ID": "1997-051N", "EPOCH": "2025-12-20T22:10:57.991584", "MEAN_MOTION": 14.4148427, "ECCENTRICITY": 0.00150583, "INCLINATION": 86.3627, "RA_OF_ASC_NODE": 46.0592, "ARG_OF_PERICENTER": 130.12, "MEAN_ANOMALY": 47.2727, "EPHEMERIS_TYPE": 0, "CLASSIFICATION_TYPE": "U", "NORAD_CAT_ID": 33775, "ELEMENT_SET_NO": 999, "REV_AT_EPOCH": 88258, "BSTAR": 0.00022031594, "MEAN_MOTION_DOT": 7.36e-06, "MEAN_MOTION_DDOT": 0}, "tle": {"line1": "1 33775U 97051N   25354.92428231  .00000736  00000+0  22032-3 0  9994", "line2": "2 33775  86.3627  46.0592 0015058 130.1200  47.2727 14.41484270882586"}}, "geometry": {"type": "Point", "coordinates": [46.68491857104769, 11.783011449909472]}}, {"type": "Feature", "properties": {"norad_id": 33776, "name": "IRIDIUM 33 DEB", "group": "iridium-33-debris", "lat": 36.97515173539646, "lon": -105.50762613544023, "alt_km": 751.5019483403703, "timestamp": "2025-12-21T05:44:51.972264+00:00", "meta": {"OBJECT_NAME": "IRIDIUM 33 DEB", "OBJECT_ID": "1997-051P", "EPOCH": "2025-12-20T17:57:25.069248", "MEAN_MOTION": 14.38248019, "ECCENTRICITY": 0.00152633, "INCLINATION": 86.4034, "RA_OF_ASC_NODE": 77.4128, "ARG_OF_PERICENTER": 164.7003, "MEAN_ANOMALY": 316.1077, "EPHEMERIS_TYPE": 0, "CLASSIFICATION_TYPE": "U", "NORAD_CAT_ID": 33776, "ELEMENT_SET_NO": 999, "REV_AT_EPOCH": 88197, "BSTAR": 0.00019534602, "MEAN_MOTION_DOT": 6.14e-06, "MEAN_MOTION_DDOT": 0}, "tle": {"line1": "1 33776U 97051P   25354.74820682  .00000614  00000+0  19535-3 0  9990", "line2": "2 33776  86.4034  77.4128 0015263 164.7003 316.1077 14.38248019881978"}}, "geometry": {"type": "Point", "coordinates": [-105.50762613544023, 36.97515173539646]}}, {"type": "Feature", "properties": {"norad_id": 33777, "name": "IRIDIUM 33 DEB", "group": "iridium-33-debris", "lat": 77.22725933002828, "lon": -164.7217327203073, "alt_km": 701.4555321590615, "timestamp": "2025-12-21T05:44:51.972276+00:00", "meta": {"OBJECT_NAME": "IRIDIUM 33 DEB", "OBJECT_ID": "1997-051Q", "EPOCH": "2025-12-20T12:46:53.076000", "MEAN_MOTION": 14.55663152, "ECCENTRICITY": 0.0005789, "INCLINATION": 86.3775, "RA_OF_ASC_NODE": 31.8134, "ARG_OF_PERICENTER": 214.9048, "MEAN_ANOMALY": 145.178, "EPHEMERIS_TYPE": 0, "CLASSIFICATION_TYPE": "U", "NORAD_CAT_ID": 33777, "ELEMENT_SET_NO": 999, "REV_AT_EPOCH": 88647, "BSTAR": 0.00051289, "MEAN_MOTION_DOT": 2.26e-05, "MEAN_MOTION_DDOT": 0}, "tle": {"line1": "1 33777U 97051Q   25354.53255875  .00002260  00000+0  51289-3 0  9995", "line2": "2 33777  86.3775  31.8134 0005789 214.9048 145.1780 14.55663152886479"}}, "geometry": {"type": "Point", "coordinates": [-164.7217327203073, 77.22725933002828]}}, {"type": "Feature", "properties": {"norad_id": 33850, "name": "IRIDIUM 33 DEB", "group": "iridium-33-debris", "lat": 13.43704368755198, "lon": 27.4006424305768, "alt_km": 757.3989099464807, "timestamp": "2025-12-21T05:44:51.972288+00:00", "meta": {"OBJECT_NAME": "IRIDIUM 33 DEB", "OBJECT_ID": "1997-051T", "EPOCH": "2025-12-20T20:29:38.135040", "MEAN_MOTION": 14.42163451, "ECCENTRICITY": 0.00130082, "INCLINATION": 86.3409, "RA_OF_ASC_NODE": 26.6904, "ARG_OF_PERICENTER": 136.6945, "MEAN_ANOMALY": 36.4511, "EPHEMERIS_TYPE": 0, "CLASSIFICATION_TYPE": "U", "NORAD_CAT_ID": 33850, "ELEMENT_SET_NO": 999, "REV_AT_EPOCH": 88269, "BSTAR": 0.00025829804, "MEAN_MOTION_DOT": 8.7e-06, "MEAN_MOTION_DDOT": 0}, "tle": {"line1": "1 33850U 97051T   25354.85391360  .00000870  00000+0  25830-3 0  9990", "line2": "2 33850  86.3409  26.6904 0013008 136.6945  36.4511 14.42163451882698"}}, "geometry": {"type": "Point", "coordinates": [27.4006424305768, 13.43704368755198]}}, {"type": "Feature", "properties": {"norad_id": 33853, "name": "IRIDIUM 33 DEB", "group": "iridium-33-debris", "lat": 20.80959518245553, "lon": 164.55989674998787, "alt_km": 799.1760944999605, "timestamp": "2025-12-21T05:44:51.972300+00:00", "meta": {"OBJECT_NAME": "IRIDIUM 33 DEB", "OBJECT_ID": "1997-051W", "EPOCH": "2025-12-20T22:14:35.889792", "MEAN_MOTION": 13.9910315, "ECCENTRICITY": 0.02073321, "INCLINATION": 85.9999, "RA_OF_ASC_NODE": 346.2208, "ARG_OF_PERICENTER": 210.5493, "MEAN_ANOMALY": 176.3282, "EPHEMERIS_TYPE": 0, "CLASSIFICATION_TYPE": "U", "NORAD_CAT_ID": 33853, "ELEMENT_SET_NO": 999, "REV_AT_EPOCH": 85460, "BSTAR": 0.0010167565, "MEAN_MOTION_DOT": 1.786e-05, "MEAN_MOTION_DDOT": 0}, "tle": {"line1": "1 33853U 97051W   25354.92680428  .00001786  00000+0  10168-2 0  9991", "line2": "2 33853  85.9999 346.2208 0207332 210.5493 176.3282 13.99103150854603"}}, "geometry": {"type": "Point", "coordinates": [164.55989674998787, 20.80959518245553]}}, {"type": "Feature", "properties": {"norad_id": 33860, "name": "IRIDIUM 33 DEB", "group": "iridium-33-debris", "lat": -0.6199703855618955, "lon": 23.436320143445283, "alt_km": 668.5943457883759, "timestamp": "2025-12-21T05:44:51.972311+00:00", "meta": {"OBJECT_NAME": "IRIDIUM 33 DEB", "OBJECT_ID": "1997-051AD", "EPOCH": "2025-12-20T20:29:23.154144", "MEAN_MOTION": 14.67455814, "ECCENTRICITY": 0.0006442, "INCLINATION": 86.3823, "RA_OF_ASC_NODE": 23.6463, "ARG_OF_PERICENTER": 327.0709, "MEAN_ANOMALY": 155.8571, "EPHEMERIS_TYPE": 0, "CLASSIFICATION_TYPE": "U", "NORAD_CAT_ID": 33860, "ELEMENT_SET_NO": 999, "REV_AT_EPOCH": 88841, "BSTAR": 0.00066996269, "MEAN_MOTION_DOT": 3.814e-05, "MEAN_MOTION_DDOT": 0}, "tle": {"line1": "1 33860U 97051AD  25354.85374021  .00003814  00000+0  66996-3 0  9995", "line2": "2 33860  86.3823  23.6463 0006442 327.0709 155.8571 14.67455814888416"}}, "geometry": {"type": "Point", "coordinates": [23.436320143445283, -0.6199703855618955]}}, {"type": "Feature", "properties": {"norad_id": 33862, "name": "IRIDIUM 33 DEB", "group": "iridium-33-debris", "lat": 79.22810898916109, "lon": -165.49791002474396, "alt_km": 636.1214166168456, "timestamp": "2025-12-21T05:44:51.972322+00:00", "meta": {"OBJECT_NAME": "IRIDIUM 33 DEB", "OBJECT_ID": "1997-051AF", "EPOCH": "2025-12-20T13:30:03.805056", "MEAN_MOTION": 14.69587199, "ECCENTRICITY": 0.0052676, "INCLINATION": 86.4079, "RA_OF_ASC_NODE": 34.0806, "ARG_OF_PERICENTER": 42.9982, "MEAN_ANOMALY": 77.561, "EPHEMERIS_TYPE": 0, "CLASSIFICATION_TYPE": "U", "NORAD_CAT_ID": 33862, "ELEMENT_SET_NO": 999, "REV_AT_EPOCH": 88938, "BSTAR": 0.00081002, "MEAN_MOTION_DOT": 4.938e-05, "MEAN_MOTION_DDOT": 0}, "tle": {"line1": "1 33862U 97051AF  25354.56254404  .00004938  00000+0  81002-3 0  9990", "line2": "2 33862  86.4079  34.0806 0052676  42.9982  77.5610 14.69587199889380"}}, "geometry": {"type": "Point", "coordinates": [-165.49791002474396, 79.22810898916109]}}, {"type": "Feature", "properties": {"norad_id": 33866, "name": "IRIDIUM 33 DEB", "group": "iridium-33-debris", "lat": -73.52811032297957, "lon": -77.91917773345722, "alt_km": 854.8366304996725, "timestamp": "2025-12-21T05:44:51.972333+00:00", "meta": {"OBJECT_NAME": "IRIDIUM 33 DEB", "OBJECT_ID": "1997-051AK", "EPOCH": "2025-12-20T19:02:31.124256", "MEAN_MOTION": 14.25296873, "ECCENTRICITY": 0.01150044, "INCLINATION": 86.3001, "RA_OF_ASC_NODE": 89.6286, "ARG_OF_PERICENTER": 135.8612, "MEAN_ANOMALY": 349.482, "EPHEMERIS_TYPE": 0, "CLASSIFICATION_TYPE": "U", "NORAD_CAT_ID": 33866, "ELEMENT_SET_NO": 999, "REV_AT_EPOCH": 86925, "BSTAR": 0.0003750045, "MEAN_MOTION_DOT": 9.66e-06, "MEAN_MOTION_DDOT": 0}, "tle": {"line1": "1 33866U 97051AK  25354.79341579  .00000966  00000+0  37500-3 0  9990", "line2": "2 33866  86.3001  89.6286 0115004 135.8612 349.4820 14.25296873869259"}}, "geometry": {"type": "Point", "coordinates": [-77.91917773345722, -73.52811032297957]}}]}